[{"OBJECT_NAME":"STARLINK-3953","OBJECT_ID":"2022-051AC","EPOCH":"2026-03-09T11:08:50.519904","MEAN_MOTION":15.08832064,"ECCENTRICITY":0.00012011,"INCLINATION":53.2178,"RA_OF_ASC_NODE":120.3144,"ARG_OF_PERICENTER":83.1983,"MEAN_ANOMALY":276.9145,"EPHEMERIS_TYPE":0,"CLASSIFICATION_TYPE":"U","NORAD_CAT_ID":52559,"ELEMENT_SET_NO":999,"REV_AT_EPOCH":21154,"BSTAR":8.6279054e-5,"MEAN_MOTION_DOT":1.085e-5,"MEAN_MOTION_DDOT":0},{"OBJECT_NAME":"SEDNA-2","OBJECT_ID":"2025-009DQ","EPOCH":"2026-03-09T19:10:28.282944","MEAN_MOTION":15.10492622,"ECCENTRICITY":0.0010309,"INCLINATION":97.4615,"RA_OF_ASC_NODE":144.8075,"ARG_OF_PERICENTER":53.026,"MEAN_ANOMALY":307.1912,"EPHEMERIS_TYPE":0,"CLASSIFICATION_TYPE":"U","NORAD_CAT_ID":63153,"ELEMENT_SET_NO":999,"REV_AT_EPOCH":6311,"BSTAR":0.00049393403,"MEAN_MOTION_DOT":8.085e-5,"MEAN_MOTION_DDOT":0}]
