STARLINK-3953           
1 52559U 22051AC  26068.46447361  .00001085  00000+0  86279-4 0  9992
2 52559  53.2178 120.3144 0001201  83.1983 276.9145 15.08832064211549
SEDNA-2                 
1 63153U 25009DQ  26068.79893845  .00008085  00000+0  49393-3 0  9990
2 63153  97.4615 144.8075 0010309  53.0260 307.1912 15.10492622 63116
